start=new Date('2022-01-28T00:00:00.000Z').valueOf();
sats=[{"TLE_LINE1":"1 47573U 21009AB  22027.81691292  .00001568  00000-0  12418-3 0  9998","PERIOD":"95.592","ARG_OF_PERICENTER":"66.6128","COUNTRY_CODE":"US","SITE":"AFETR","ELEMENT_SET_NO":"999","EPHEMERIS_TYPE":"0","FILE":"3285321","ECCENTRICITY":"0.00021100","LAUNCH_DATE":"2021-02-04","CLASSIFICATION_TYPE":"U","TLE_LINE2":"2 47573  53.0556 273.7840 0002110  66.6128 293.5083 15.06402026 55169","CENTER_NAME":"EARTH","MEAN_ANOMALY":"293.5083","NORAD_CAT_ID":"47573","OBJECT_TYPE":"PAYLOAD","OBJECT_ID":"2021-009AB","TIME_SYSTEM":"UTC","REF_FRAME":"TEME","REV_AT_EPOCH":"5516","RCS_SIZE":"LARGE","INCLINATION":"53.0556","BSTAR":"0.00012418000000","SEMIMAJOR_AXIS":"6925.342","OBJECT_NAME":"STARLINK-1975","APOAPSIS":"548.669","GP_ID":"194754350","MEAN_MOTION_DDOT":"0.0000000000000","RA_OF_ASC_NODE":"273.7840","DECAY_DATE":null,"EPOCH":"2022-01-27T19:36:21.276288","MEAN_ELEMENT_THEORY":"SGP4","MEAN_MOTION":"15.06402026","PERIAPSIS":"545.746","MEAN_MOTION_DOT":"0.00001568"},{"MEAN_ANOMALY":"298.2205","NORAD_CAT_ID":"47574","OBJECT_TYPE":"PAYLOAD","OBJECT_ID":"2021-009AC","TIME_SYSTEM":"UTC","REF_FRAME":"TEME","CLASSIFICATION_TYPE":"U","LAUNCH_DATE":"2021-02-04","ECCENTRICITY":"0.00018080","TLE_LINE2":"2 47574  53.0552 305.2064 0001808  61.8966 298.2205 15.06412794 54097","CENTER_NAME":"EARTH","EPHEMERIS_TYPE":"0","FILE":"3284946","TLE_LINE1":"1 47574U 21009AC  22027.50083791  .00003829  00000-0  27574-3 0  9995","PERIOD":"95.591","ARG_OF_PERICENTER":"61.8966","COUNTRY_CODE":"US","SITE":"AFETR","ELEMENT_SET_NO":"999","MEAN_ELEMENT_THEORY":"SGP4","MEAN_MOTION":"15.06412794","PERIAPSIS":"545.922","MEAN_MOTION_DOT":"0.00003829","RA_OF_ASC_NODE":"305.2064","MEAN_MOTION_DDOT":"0.0000000000000","DECAY_DATE":null,"EPOCH":"2022-01-27T12:01:12.395424","SEMIMAJOR_AXIS":"6925.309","OBJECT_NAME":"STARLINK-1976","APOAPSIS":"548.426","GP_ID":"194741763","REV_AT_EPOCH":"5409","RCS_SIZE":"LARGE","INCLINATION":"53.0552","BSTAR":"0.00027574000000"},{"DECAY_DATE":null,"RA_OF_ASC_NODE":"305.2554","MEAN_MOTION_DDOT":"0.0000000000000","EPOCH":"2022-01-27T11:45:17.478432","MEAN_MOTION":"15.06400181","PERIAPSIS":"545.906","MEAN_ELEMENT_THEORY":"SGP4","MEAN_MOTION_DOT":"-0.00001377","REV_AT_EPOCH":"5469","RCS_SIZE":"LARGE","BSTAR":"-0.00007353200000","INCLINATION":"53.0551","GP_ID":"194754027","SEMIMAJOR_AXIS":"6925.348","APOAPSIS":"548.520","OBJECT_NAME":"STARLINK-1977","LAUNCH_DATE":"2021-02-04","ECCENTRICITY":"0.00018870","CLASSIFICATION_TYPE":"U","CENTER_NAME":"EARTH","TLE_LINE2":"2 47575  53.0551 305.2554 0001887  69.0491 291.0700 15.06400181 54695","OBJECT_TYPE":"PAYLOAD","MEAN_ANOMALY":"291.0700","NORAD_CAT_ID":"47575","REF_FRAME":"TEME","OBJECT_ID":"2021-009AD","TIME_SYSTEM":"UTC","TLE_LINE1":"1 47575U 21009AD  22027.48978563 -.00001377  00000-0 -73532-4 0  9997","PERIOD":"95.592","ELEMENT_SET_NO":"999","ARG_OF_PERICENTER":"69.0491","COUNTRY_CODE":"US","SITE":"AFETR","FILE":"3285321","EPHEMERIS_TYPE":"0"},{"DECAY_DATE":null,"RA_OF_ASC_NODE":"263.9105","MEAN_MOTION_DDOT":"0.0000000000000","EPOCH":"2022-01-27T18:55:13.033920","PERIAPSIS":"545.764","MEAN_MOTION":"15.06399186","MEAN_ELEMENT_THEORY":"SGP4","MEAN_MOTION_DOT":"0.00000649","RCS_SIZE":"LARGE","REV_AT_EPOCH":"5531","BSTAR":"0.00006245400000","INCLINATION":"53.0520","GP_ID":"194754346","APOAPSIS":"548.668","OBJECT_NAME":"STARLINK-1978","SEMIMAJOR_AXIS":"6925.351","CLASSIFICATION_TYPE":"U","LAUNCH_DATE":"2021-02-04","ECCENTRICITY":"0.00020960","CENTER_NAME":"EARTH","TLE_LINE2":"2 47576  53.0520 263.9105 0002096  58.4717 301.6477 15.06399186 55311","OBJECT_TYPE":"PAYLOAD","NORAD_CAT_ID":"47576","MEAN_ANOMALY":"301.6477","REF_FRAME":"TEME","TIME_SYSTEM":"UTC","OBJECT_ID":"2021-009AE","TLE_LINE1":"1 47576U 21009AE  22027.78834530  .00000649  00000-0  62454-4 0  9996","PERIOD":"95.592","ELEMENT_SET_NO":"999","SITE":"AFETR","COUNTRY_CODE":"US","ARG_OF_PERICENTER":"58.4717","FILE":"3285321","EPHEMERIS_TYPE":"0"},{"EPOCH":"2022-01-27T19:54:15.517728","DECAY_DATE":null,"MEAN_MOTION_DDOT":"0.0000000000000","RA_OF_ASC_NODE":"278.7414","MEAN_MOTION_DOT":"0.00000808","PERIAPSIS":"546.060","MEAN_MOTION":"15.06403833","MEAN_ELEMENT_THEORY":"SGP4","BSTAR":"0.00007312500000","INCLINATION":"53.0540","RCS_SIZE":"LARGE","REV_AT_EPOCH":"5510","GP_ID":"194750425","APOAPSIS":"548.344","OBJECT_NAME":"STARLINK-1979","SEMIMAJOR_AXIS":"6925.337","CENTER_NAME":"EARTH","TLE_LINE2":"2 47577  53.0540 278.7414 0001649  68.1058 292.0107 15.06403833 55105","LAUNCH_DATE":"2021-02-04","CLASSIFICATION_TYPE":"U","ECCENTRICITY":"0.00016490","REF_FRAME":"TEME","TIME_SYSTEM":"UTC","OBJECT_ID":"2021-009AF","OBJECT_TYPE":"PAYLOAD","NORAD_CAT_ID":"47577","MEAN_ANOMALY":"292.0107","ELEMENT_SET_NO":"999","SITE":"AFETR","COUNTRY_CODE":"US","ARG_OF_PERICENTER":"68.1058","TLE_LINE1":"1 47577U 21009AF  22027.82934627  .00000808  00000-0  73125-4 0  9994","PERIOD":"95.592","EPHEMERIS_TYPE":"0","FILE":"3285177"},{"GP_ID":"194750740","SEMIMAJOR_AXIS":"6925.353","APOAPSIS":"548.488","OBJECT_NAME":"STARLINK-1980","BSTAR":"0.00021707000000","INCLINATION":"53.0546","REV_AT_EPOCH":"5500","RCS_SIZE":"LARGE","MEAN_MOTION_DOT":"0.00002953","MEAN_MOTION":"15.06398477","PERIAPSIS":"545.949","MEAN_ELEMENT_THEORY":"SGP4","EPOCH":"2022-01-27T16:34:34.681152","DECAY_DATE":null,"MEAN_MOTION_DDOT":"0.0000000000000","RA_OF_ASC_NODE":"284.3497","EPHEMERIS_TYPE":"0","FILE":"3285177","ELEMENT_SET_NO":"999","ARG_OF_PERICENTER":"68.2971","COUNTRY_CODE":"US","SITE":"AFETR","TLE_LINE1":"1 47578U 21009AG  22027.69067918  .00002953  00000-0  21707-3 0  9991","PERIOD":"95.592","REF_FRAME":"TEME","OBJECT_ID":"2021-009AG","TIME_SYSTEM":"UTC","OBJECT_TYPE":"PAYLOAD","MEAN_ANOMALY":"291.8213","NORAD_CAT_ID":"47578","CENTER_NAME":"EARTH","TLE_LINE2":"2 47578  53.0546 284.3497 0001833  68.2971 291.8213 15.06398477 55007","LAUNCH_DATE":"2021-02-04","CLASSIFICATION_TYPE":"U","ECCENTRICITY":"0.00018330"},{"GP_ID":"194742520","OBJECT_NAME":"STARLINK-1981","APOAPSIS":"548.341","SEMIMAJOR_AXIS":"6925.349","BSTAR":"0.00006205500000","INCLINATION":"53.0549","RCS_SIZE":"LARGE","REV_AT_EPOCH":"5450","MEAN_MOTION_DOT":"0.00000643","PERIAPSIS":"546.088","MEAN_MOTION":"15.06399722","MEAN_ELEMENT_THEORY":"SGP4","EPOCH":"2022-01-27T09:47:11.681376","DECAY_DATE":null,"RA_OF_ASC_NODE":"275.6248","MEAN_MOTION_DDOT":"0.0000000000000","EPHEMERIS_TYPE":"0","FILE":"3284946","ELEMENT_SET_NO":"999","SITE":"AFETR","ARG_OF_PERICENTER":"60.6464","COUNTRY_CODE":"US","PERIOD":"95.592","TLE_LINE1":"1 47579U 21009AH  22027.40777409  .00000643  00000-0  62055-4 0  9990","REF_FRAME":"TEME","TIME_SYSTEM":"UTC","OBJECT_ID":"2021-009AH","OBJECT_TYPE":"PAYLOAD","NORAD_CAT_ID":"47579","MEAN_ANOMALY":"299.4687","CENTER_NAME":"EARTH","TLE_LINE2":"2 47579  53.0549 275.6248 0001627  60.6464 299.4687 15.06399722 54509","LAUNCH_DATE":"2021-02-04","CLASSIFICATION_TYPE":"U","ECCENTRICITY":"0.00016270"},{"RCS_SIZE":"LARGE","REV_AT_EPOCH":"5491","BSTAR":"0.00047091000000","INCLINATION":"53.0551","GP_ID":"194750738","OBJECT_NAME":"STARLINK-1982","APOAPSIS":"548.473","SEMIMAJOR_AXIS":"6925.308","DECAY_DATE":null,"RA_OF_ASC_NODE":"287.0124","MEAN_MOTION_DDOT":"0.0000000000000","EPOCH":"2022-01-27T02:20:01.015008","PERIAPSIS":"545.872","MEAN_MOTION":"15.06413378","MEAN_ELEMENT_THEORY":"SGP4","MEAN_MOTION_DOT":"0.00006742","TLE_LINE1":"1 47580U 21009AJ  22027.09723397  .00006742  00000-0  47091-3 0  9992","PERIOD":"95.591","ELEMENT_SET_NO":"999","SITE":"AFETR","COUNTRY_CODE":"US","ARG_OF_PERICENTER":"60.6790","FILE":"3285177","EPHEMERIS_TYPE":"0","ECCENTRICITY":"0.00018780","LAUNCH_DATE":"2021-02-04","CLASSIFICATION_TYPE":"U","CENTER_NAME":"EARTH","TLE_LINE2":"2 47580  53.0551 287.0124 0001878  60.6790 299.4387 15.06413378 54910","OBJECT_TYPE":"PAYLOAD","NORAD_CAT_ID":"47580","MEAN_ANOMALY":"299.4387","REF_FRAME":"TEME","TIME_SYSTEM":"UTC","OBJECT_ID":"2021-009AJ"},{"REF_FRAME":"TEME","TIME_SYSTEM":"UTC","OBJECT_ID":"2021-009AK","OBJECT_TYPE":"PAYLOAD","NORAD_CAT_ID":"47581","MEAN_ANOMALY":"293.5286","CENTER_NAME":"EARTH","TLE_LINE2":"2 47581  53.0550 267.1136 0001775  66.5889 293.5286 15.06397336 54594","CLASSIFICATION_TYPE":"U","LAUNCH_DATE":"2021-02-04","ECCENTRICITY":"0.00017750","FILE":"3284946","EPHEMERIS_TYPE":"0","ELEMENT_SET_NO":"999","SITE":"AFETR","ARG_OF_PERICENTER":"66.5889","COUNTRY_CODE":"US","TLE_LINE1":"1 47581U 21009AK  22027.07696658  .00001878  00000-0  14493-3 0  9995","PERIOD":"95.592","MEAN_MOTION_DOT":"0.00001878","PERIAPSIS":"545.992","MEAN_MOTION":"15.06397336","MEAN_ELEMENT_THEORY":"SGP4","EPOCH":"2022-01-27T01:50:49.912512","DECAY_DATE":null,"RA_OF_ASC_NODE":"267.1136","MEAN_MOTION_DDOT":"0.0000000000000","GP_ID":"194741519","OBJECT_NAME":"STARLINK-1984","APOAPSIS":"548.451","SEMIMAJOR_AXIS":"6925.357","BSTAR":"0.00014493000000","INCLINATION":"53.0550","RCS_SIZE":"LARGE","REV_AT_EPOCH":"5459"},{"CENTER_NAME":"EARTH","TLE_LINE2":"2 47582  53.0546 286.8814 0001672  61.3207 298.7950 15.06394437 54329","ECCENTRICITY":"0.00016720","LAUNCH_DATE":"2021-02-04","CLASSIFICATION_TYPE":"U","REF_FRAME":"TEME","OBJECT_ID":"2021-009AL","TIME_SYSTEM":"UTC","OBJECT_TYPE":"PAYLOAD","MEAN_ANOMALY":"298.7950","NORAD_CAT_ID":"47582","ELEMENT_SET_NO":"999","ARG_OF_PERICENTER":"61.3207","COUNTRY_CODE":"US","SITE":"AFETR","PERIOD":"95.592","TLE_LINE1":"1 47582U 21009AL  22027.13040102  .00001225  00000-0  10114-3 0  9992","FILE":"3284946","EPHEMERIS_TYPE":"0","EPOCH":"2022-01-27T03:07:46.648128","DECAY_DATE":null,"RA_OF_ASC_NODE":"286.8814","MEAN_MOTION_DDOT":"0.0000000000000","MEAN_MOTION_DOT":"0.00001225","MEAN_MOTION":"15.06394437","PERIAPSIS":"546.073","MEAN_ELEMENT_THEORY":"SGP4","BSTAR":"0.00010114000000","INCLINATION":"53.0546","REV_AT_EPOCH":"5432","RCS_SIZE":"LARGE","GP_ID":"194741764","SEMIMAJOR_AXIS":"6925.366","APOAPSIS":"548.389","OBJECT_NAME":"STARLINK-1986"}];
